{"fetched_at":"2026-03-29T16:36:15Z","count":15609,"tles":[{"name":"STARLINK-31960","line1":"1 59931U 24106K   26087.70451189 -.00001564  00000+0 -47296-4 0  9997","line2":"2 59931  43.0023 224.9003 0001170 258.0896 101.9825 15.27606305103430","category":"Starlink"}]}