{
  "norad_id": 59931,
  "name": "STARLINK-31960",
  "history": [
    {
      "epoch": "2026-03-28T16:54:29.827296",
      "apogee_km": 483.77321731658594,
      "perigee_km": 482.16744375694725,
      "latitude_deg": -34.976742630081446,
      "longitude_deg": -119.26685855980031,
      "semi_major_axis_km": 6861.107330536766,
      "eccentricity": 0.00011702,
      "inclination_deg": 43.0023,
      "raan_deg": 224.9003,
      "arg_perigee_deg": 258.0896,
      "mean_anomaly_deg": 101.9825,
      "mean_motion_rev_day": 15.27606305
    }
  ]
}